OBJECT_NAME,OBJECT_ID,EPOCH,MEAN_MOTION,ECCENTRICITY,INCLINATION,RA_OF_ASC_NODE,ARG_OF_PERICENTER,MEAN_ANOMALY,EPHEMERIS_TYPE,CLASSIFICATION_TYPE,NORAD_CAT_ID,ELEMENT_SET_NO,REV_AT_EPOCH,BSTAR,MEAN_MOTION_DOT,MEAN_MOTION_DDOT
GLOBALSTAR M069,2007-020C,2026-07-01T12:11:50.495712,12.23471723,.00020029,52.0001,211.5924,179.7330,330.5646,0,U,31573,999,88055,.22800059E-3,-.68E-6,0
GLOBALSTAR M072,2007-020D,2026-07-01T15:17:14.216640,11.91658451,.00015625,51.9938,61.7764,7.1243,14.5247,0,U,31574,999,87670,.22452535E-3,-.68E-6,0
GLOBALSTAR M066,2007-048C,2026-07-01T12:37:33.845088,12.30387624,.00056624,51.9599,16.7497,73.8742,302.5902,0,U,32265,999,86199,-.18407312E-4,-.97E-6,0
GLOBALSTAR M079,2010-054A,2026-07-01T14:46:45.714432,12.62266352,.00009957,52.0044,64.7475,53.8030,316.7366,0,U,37188,999,72437,.12898667E-3,-.81E-6,0
GLOBALSTAR M074,2010-054B,2026-07-01T10:33:28.918656,12.62261922,.00007806,52.0025,64.5456,71.7143,99.3608,0,U,37189,999,72495,.1772623E-3,-.72E-6,0
GLOBALSTAR M076,2010-054C,2026-07-01T09:17:31.642656,12.62261941,.00010024,52.0036,64.9108,68.1653,103.0062,0,U,37190,999,72466,.73088057E-4,-.91E-6,0
GLOBALSTAR M077,2010-054D,2026-07-01T03:38:10.292928,11.67547961,.00025053,51.9934,143.8512,198.2303,175.3685,0,U,37191,999,72277,-.29193758E-3,-.94E-6,0
GLOBALSTAR M075,2010-054E,2026-07-01T01:10:09.153120,12.62267517,.00004892,51.9944,107.9874,41.3429,331.3029,0,U,37192,999,72369,.47659557E-4,-.95E-6,0
GLOBALSTAR M073,2010-054F,2026-07-01T12:37:52.784832,12.62266792,.00010998,52.0076,20.6449,74.9938,307.3540,0,U,37193,999,72574,.81293303E-4,-.89E-6,0
GLOBALSTAR M083,2011-033A,2026-07-01T04:13:24.907872,12.62263755,.00009467,51.9878,329.9208,88.4578,82.5589,0,U,37739,999,69471,.11113868E-3,-.84E-6,0
GLOBALSTAR M088,2011-033B,2026-07-01T10:21:57.557088,12.62269160,.00003672,52.0196,235.6051,147.2718,225.8341,0,U,37740,999,69029,.16398204E-3,-.74E-6,0
GLOBALSTAR M091,2011-033C,2026-07-01T08:46:55.036992,12.62264190,.0000061,51.9966,198.7492,337.9942,35.8428,0,U,37741,999,69107,.15452236E-4,-.101E-5,0
GLOBALSTAR M085,2011-033D,2026-07-01T05:08:06.491328,12.62264194,.0000442,52.0104,150.5148,7.9255,95.1431,0,U,37742,999,69156,-.89974E-4,-.12E-5,0
GLOBALSTAR M081,2011-033E,2026-07-01T05:45:50.330304,12.62265315,.00003423,51.9935,152.8553,37.8183,64.1163,0,U,37743,999,69171,-.68668685E-4,-.116E-5,0
GLOBALSTAR M089,2011-033F,2026-07-01T02:26:20.764608,12.62267420,.00005487,51.9924,107.4334,79.5393,293.5420,0,U,37744,999,69254,.18070678E-4,-.101E-5,0
GLOBALSTAR M084,2011-080A,2026-07-01T03:35:31.818912,12.62267665,.00010751,52.0025,334.7757,108.7325,62.6964,0,U,38040,999,67052,.14392373E-4,-.101E-5,0
GLOBALSTAR M080,2011-080B,2026-07-01T04:48:13.214016,12.62265498,.00004223,52.0083,336.3451,78.2417,92.7738,0,U,38041,999,67065,.15017866E-4,-.101E-5,0
GLOBALSTAR M082,2011-080C,2026-07-01T12:18:14.685408,12.62263811,.00004075,52.0083,290.8970,110.2685,331.3367,0,U,38042,999,67140,.11866526E-3,-.83E-6,0
GLOBALSTAR M092,2011-080D,2026-07-01T15:16:11.913600,12.62267304,.00008485,52.0100,20.9180,84.4291,318.2017,0,U,38043,999,66987,.89772251E-4,-.88E-6,0
GLOBALSTAR M090,2011-080E,2026-07-01T11:01:38.272800,12.62252582,.00005577,52.0130,285.0194,104.8128,333.9553,0,U,38044,999,67151,-.3847069E-5,-.104E-5,0
GLOBALSTAR M086,2011-080F,2026-07-01T11:33:23.644224,12.62287426,.00016801,51.9902,284.8583,91.1828,350.0829,0,U,38045,999,67146,.21699851E-3,-.65E-6,0
GLOBALSTAR M097,2013-005A,2026-07-01T08:05:06.841536,12.62271286,.00001431,52.0014,200.2637,56.0775,304.0105,0,U,39072,999,61869,.8536576E-5,-.102E-5,0
GLOBALSTAR M093,2013-005B,2026-07-01T11:14:32.023680,12.62266189,.00003161,52.0073,193.2146,33.3017,326.7870,0,U,39073,999,61866,-.9050276E-5,-.105E-5,0
GLOBALSTAR M094,2013-005C,2026-07-01T01:44:12.463872,12.62268406,.00007415,51.9954,108.5226,35.5951,324.4965,0,U,39074,999,62022,-.66033375E-4,-.116E-5,0
GLOBALSTAR M096,2013-005D,2026-07-01T05:51:43.181856,12.62265669,.0000381,52.0048,156.8116,11.1119,348.9756,0,U,39075,999,61916,-.98547E-4,-.121E-5,0
GLOBALSTAR M078,2013-005E,2026-07-01T12:49:03.377568,12.62260182,.00005341,51.9859,239.9216,292.4665,67.6145,0,U,39076,999,61782,.41990036E-3,-.29E-6,0
GLOBALSTAR M095,2013-005F,2026-07-01T09:39:28.116864,12.62263842,.00000899,52.0064,237.9464,9.1921,350.8947,0,U,39077,999,61766,.18486403E-3,-.71E-6,0
GLOBALSTAR M087,2022-064A,2026-07-01T11:52:27.724512,12.62269295,.00009221,52.0010,18.8941,66.0033,294.0930,0,U,52888,999,19294,.40798359E-4,-.96E-6,0
